     2.100          NAVIGATION                              RINEX VERSION / TYPE
fic2rin                                 01/29/2010 00:11:16 PGM / RUN BY / DATE
                                                            END OF HEADER
 2 10  1 28  8  0  0.0  .220442190766D-03  .420641299570D-11  .000000000000D+00
     .930000000000D+02 -.628125000000D+01  .561416242383D-08  .486619867751D+00
    -.441446900368D-06  .931425485760D-02  .486522912979D-05  .515375337982D+04
     .374400000000D+06  .203028321266D-06  .148393185442D+01 -.149011611938D-07
     .939792670800D+00  .274593750000D+03  .295085045872D+01 -.856928551657D-08
    -.220366321999D-09  .100000000000D+01  .156800000000D+04  .000000000000D+00
     .240000000000D+01  .000000000000D+00 -.172294676304D-07  .930000000000D+02
     .367206000000D+06  .400000000000D+01
 3 10  1 28  8  0  0.0  .508059747517D-03  .511590769747D-11  .000000000000D+00
     .570000000000D+02 -.131250000000D+01  .537593821512D-08  .305974657393D+00
     .115483999252D-06  .128028386971D-01  .102426856756D-04  .515368688393D+04
     .374400000000D+06 -.158324837685D-06  .333058379550D+00  .191852450371D-06
     .927239682363D+00  .164750000000D+03  .978214489371D+00 -.846999566646D-08
     .555737434409D-09  .100000000000D+01  .156800000000D+04  .000000000000D+00
     .240000000000D+01  .000000000000D+00 -.419095158577D-08  .570000000000D+02
     .367206000000D+06  .400000000000D+01
 4 10  1 28  8  0  0.0  .112410634756D-05  .932232069317D-11  .000000000000D+00
     .490000000000D+02 -.643750000000D+01  .549737184475D-08 -.284367599182D+01
    -.407919287682D-06  .912312557921D-02  .516511499882D-05  .515360854149D+04
     .374400000000D+06 -.372529029846D-08  .150197287908D+01 -.134110450745D-06
     .938949911490D+00  .269718750000D+03  .590835287324D+00 -.830606026646D-08
    -.197508227010D-09  .100000000000D+01  .156800000000D+04  .000000000000D+00
     .240000000000D+01  .000000000000D+00 -.605359673500D-08  .490000000000D+02
     .367206000000D+06  .400000000000D+01
 5 10  1 28  8  0  0.0 -.126082450151D-04  .329691829393D-11  .000000000000D+00
     .600000000000D+02  .384375000000D+02  .428517849488D-08  .190152694182D+01
     .205636024475D-05  .187438307330D-02  .121444463730D-04  .515364554214D+04
     .374400000000D+06 -.335276126862D-07  .254309959577D+01 -.484287738800D-07
     .959896453849D+00  .146156250000D+03  .330419019324D+00 -.774817988565D-08
    -.644312552490D-09  .100000000000D+01  .156800000000D+04  .000000000000D+00
     .240000000000D+01  .000000000000D+00 -.884756445885D-08  .600000000000D+02
     .367206000000D+06  .400000000000D+01
 6 10  1 28  8  0  0.0  .256363768131D-03 -.375166564481D-11  .000000000000D+00
     .113000000000D+03  .518750000000D+01  .514450000336D-08  .257516905977D+01
     .361353158951D-06  .592987670098D-02  .986829400063D-05  .515366584587D+04
     .374400000000D+06  .894069671631D-07  .402657595162D+00  .260770320892D-07
     .934583399458D+00  .171125000000D+03 -.115651234088D+01 -.810640909305D-08
     .580381318069D-09  .100000000000D+01  .156800000000D+04  .000000000000D+00
     .240000000000D+01  .000000000000D+00 -.512227416039D-08  .113000000000D+03
     .367206000000D+06  .400000000000D+01
 7 10  1 28  8  0  0.0  .368105247617D-05 -.568434188608D-12  .000000000000D+00
     .105000000000D+03 -.516250000000D+02  .462483550011D-08 -.122825749785D+01
    -.273250043392D-05  .322340766434D-02 -.376254320145D-06  .515372749329D+04
     .374400000000D+06 -.167638063431D-07 -.164070399576D+01 -.186264514923D-08
     .970055394404D+00  .390750000000D+03  .307577257816D+01 -.855428489173D-08
    -.460733477113D-10  .100000000000D+01  .156800000000D+04  .000000000000D+00
     .340000000000D+01  .000000000000D+00 -.107102096081D-07  .105000000000D+03
     .367206000000D+06  .400000000000D+01
 8 10  1 28  8  0  0.0  .264449045062D-05  .454747350886D-12  .000000000000D+00
     .126000000000D+03 -.691875000000D+02  .421874715632D-08 -.181991629541D+01
    -.369921326637D-05  .109351249412D-01  .335276126862D-07  .515372364426D+04
     .374400000000D+06 -.316649675369D-07 -.157523210800D+01 -.135973095894D-06
     .991344164504D+00  .398406250000D+03  .308585497884D+01 -.830963184381D-08
    -.571452374714D-11  .100000000000D+01  .156800000000D+04  .000000000000D+00
     .340000000000D+01  .000000000000D+00 -.372529029846D-08  .126000000000D+03
     .367206000000D+06  .400000000000D+01
 9 10  1 28  8  0  0.0  .102660153061D-03  .227373675443D-11  .000000000000D+00
     .630000000000D+02 -.291250000000D+02  .434518099423D-08 -.197292093262D+01
    -.112131237984D-05  .206704374868D-01 -.983476638794D-06  .515360945892D+04
     .374400000000D+06  .396743416786D-06 -.167297566869D+01  .257045030594D-06
     .978873256012D+00  .404843750000D+03  .152780847172D+01 -.812212403335D-08
    -.321441960776D-11  .100000000000D+01  .156800000000D+04  .000000000000D+00
     .240000000000D+01  .000000000000D+00 -.558793544769D-08  .630000000000D+02
     .367206000000D+06  .400000000000D+01
11 10  1 28  8  0  0.0 -.421665608883D-04 -.216004991671D-11  .000000000000D+00
     .930000000000D+02  .668750000000D+01  .668420699548D-08 -.131162582424D+01
     .419095158577D-06  .104573420249D-01  .434741377831D-05  .515370743942D+04
     .374400000000D+06  .281259417534D-06  .127126190292D+01  .242143869400D-07
     .888298088998D+00  .254312500000D+03  .788211921013D+00 -.900930384510D-08
     .189293599124D-10  .100000000000D+01  .156800000000D+04  .000000000000D+00
     .340000000000D+01  .000000000000D+00 -.116415321827D-07  .930000000000D+02
     .367206000000D+06  .400000000000D+01
12 10  1 28  8  0  0.0 -.157374888659D-03  .488853402203D-11  .000000000000D+00
     .450000000000D+02 -.145687500000D+03  .414838708269D-08 -.111253583260D+01
    -.748410820961D-05  .336016505025D-02  .906735658646D-05  .515376684380D+04
     .374400000000D+06 -.260770320892D-07 -.586973957479D+00 -.521540641785D-07
     .969749109097D+00  .210500000000D+03 -.549891180009D+00 -.784354100068D-08
     .250010413937D-11  .100000000000D+01  .156800000000D+04  .000000000000D+00
     .240000000000D+01  .000000000000D+00 -.121071934700D-07  .450000000000D+02
     .367206000000D+06  .400000000000D+01
13 10  1 28  8  0  0.0  .306642148644D-03  .000000000000D+00  .000000000000D+00
     .940000000000D+02  .155625000000D+03  .367943897769D-08  .126080777622D+01
     .801868736744D-05  .406859454233D-02  .534579157829D-05  .515360153008D+04
     .374400000000D+06 -.223517417908D-07 -.262482225781D+01 -.111758708954D-06
     .993946006732D+00  .293062500000D+03  .163891143396D+01 -.790640076190D-08
     .361443627006D-09  .100000000000D+01  .156800000000D+04  .000000000000D+00
     .240000000000D+01  .000000000000D+00 -.111758708954D-07  .940000000000D+02
     .367206000000D+06  .400000000000D+01
14 10  1 28  8  0  0.0  .522052869201D-05  .443378667114D-11  .000000000000D+00
     .510000000000D+02  .134281250000D+03  .379908681864D-08  .109913545911D+01
     .698678195477D-05  .501169997733D-02  .597909092903D-05  .515370908928D+04
     .374400000000D+06 -.987201929092D-07 -.264585819763D+01  .782310962677D-07
     .987295253450D+00  .274562500000D+03 -.209290053798D+01 -.794783105907D-08
     .266439669710D-09  .100000000000D+01  .156800000000D+04  .000000000000D+00
     .240000000000D+01  .000000000000D+00 -.884756445885D-08  .510000000000D+02
     .367206000000D+06  .400000000000D+01
15 10  1 28  8  0  0.0 -.310679432005D-03  .250111042988D-11  .000000000000D+00
     .400000000000D+02  .157250000000D+03  .451697386438D-08  .119218321515D+01
     .817142426968D-05  .234004680533D-02  .618770718575D-05  .515372452545D+04
     .374400000000D+06  .149011611938D-07 -.270607016051D+01 -.335276126862D-07
     .955053579118D+00  .254531250000D+03 -.333795890682D+00 -.819534136886D-08
     .236795577772D-09  .100000000000D+01  .156800000000D+04  .000000000000D+00
     .240000000000D+01  .000000000000D+00 -.977888703346D-08  .400000000000D+02
     .367206000000D+06  .400000000000D+01
16 10  1 28  8  0  0.0 -.353199429810D-04 -.409272615798D-11  .000000000000D+00
     .510000000000D+02 -.134406250000D+03  .410445668138D-08  .280999398687D+01
    -.688806176186D-05  .559598370455D-02  .999122858047D-05  .515370743370D+04
     .374400000000D+06 -.726431608200D-07 -.569700449853D+00  .633299350739D-07
     .971056140089D+00  .192562500000D+03 -.272713981621D+00 -.772067874012D-08
    -.396445084958D-10  .100000000000D+01  .156800000000D+04  .000000000000D+00
     .240000000000D+01  .000000000000D+00 -.977888703346D-08  .510000000000D+02
     .367206000000D+06  .400000000000D+01
17 10  1 28  8  0  0.0  .124969985336D-03  .329691829393D-11  .000000000000D+00
     .790000000000D+02 -.321875000000D+01  .457876215239D-08  .156100407982D+01
    -.894069671631D-07  .504128239118D-02  .100843608379D-04  .515377726936D+04
     .374400000000D+06 -.316649675369D-07  .472731637410D+00  .134110450745D-06
     .960306417623D+00  .186000000000D+03 -.261024748002D+01 -.792104422900D-08
     .616454249222D-09  .100000000000D+01  .156800000000D+04  .000000000000D+00
     .240000000000D+01  .000000000000D+00 -.102445483208D-07  .790000000000D+02
     .367206000000D+06  .400000000000D+01
18 10  1 28  8  0  0.0  .449833460152D-04  .261479726760D-11  .000000000000D+00
     .450000000000D+02  .323437500000D+02  .463269297026D-08  .301317497479D+01
     .169314444065D-05  .109214687254D-01  .117961317301D-04  .515366581535D+04
     .374400000000D+06  .745058059692D-08  .257127397163D+01 -.931322574615D-07
     .938964313918D+00  .139062500000D+03 -.235574952171D+01 -.776103756408D-08
    -.474305471012D-09  .100000000000D+01  .156800000000D+04  .000000000000D+00
     .240000000000D+01  .000000000000D+00 -.107102096081D-07  .450000000000D+02
     .367206000000D+06  .400000000000D+01
